STARLINK-30510          
1 57981U 23151T   23308.25002315 -.00408653  00000+0 -30218-1 0  9998
2 57981  42.9992 325.7159 0001325 246.7938 211.6328 15.04715100  6686
STARLINK-30507          
1 57982U 23151U   23307.91667824 -.02124220  00000+0 -14711+0 0  9998
2 57982  42.9993 327.4759 0001305 274.7422 199.2924 15.08536846  5729
STARLINK-30515          
1 57983U 23151V   23307.91667824 -.02130537  00000+0 -14746+0 0  9995
2 57983  42.9996 327.4458 0001137 275.4936 211.1586 15.08569984  6087
STARLINK-30516          
1 57984U 23151W   23308.25002315 -.02154208  00000+0 -15207+0 0  9996
2 57984  42.9996 325.5783 0000930 279.8350 236.3394 15.07894077  6737
STARLINK-30519          
1 57985U 23151X   23307.91667824 -.02124125  00000+0 -14437+0 0  9990
2 57985  43.0001 327.3757 0000589 316.1229 199.0801 15.09220250  6116
STARLINK-30537          
1 57991U 23153A   23307.91667824 -.02150568  00000+0 -69031-1 0  9991
2 57991  43.0005  54.9332 0001284 268.5670 286.8894 15.34983524  5622
STARLINK-30534          
1 57992U 23153B   23307.91667824 -.02146561  00000+0 -69909-1 0  9994
2 57992  43.0003  54.9476 0001066 274.8724 274.8923 15.34528158  5840
STARLINK-30536          
1 57993U 23153C   23308.25002315 -.02098430  00000+0 -69590-1 0  9998
2 57993  43.0002  53.0168 0001333 253.0889 351.7240 15.33883657  5929
STARLINK-30538          
1 57994U 23153D   23308.25002315 -.02096759  00000+0 -67537-1 0  9990
2 57994  43.0001  52.9881 0001338 250.0467   6.4278 15.34789158  5829
STARLINK-30517          
1 57995U 23153E   23307.91667824 -.02152071  00000+0 -65139-1 0  9991
2 57995  43.0004  54.8832 0001328 262.7802 313.8165 15.36796810  5940
STARLINK-30543          
1 57996U 23153F   23308.21158912  .00044618  91018-5  14467-3 0  9997
2 57996  42.9980  49.7436 0004779 347.0652  13.0100 15.90943742  5955
STARLINK-30523          
1 57997U 23153G   23307.91667824 -.02149898  00000+0 -67017-1 0  9993
2 57997  43.0005  54.9080 0001240 269.7932 296.5599 15.35889015  5940
STARLINK-30531          
1 57998U 23153H   23308.25002315 -.02095413  00000+0 -63645-1 0  9996
2 57998  43.0002  52.9361 0001278 251.6987  26.1425 15.36600922  5910
STARLINK-30552          
1 57999U 23153J   23308.25002315 -.02095523  00000+0 -64593-1 0  9992
2 57999  43.0002  52.9495 0001299 251.2868  21.4571 15.36147891  5928
STARLINK-30545          
1 58000U 23153K   23308.25002315 -.02095211  00000+0 -62704-1 0  9992
2 58000  43.0002  52.9243 0001320 251.9323  30.8426 15.37054001  5925
STARLINK-30535          
1 58001U 23153L   23307.91667824 -.02150949  00000+0 -60433-1 0  9994
2 58001  43.0002  54.8271 0001305 265.3325 334.0224 15.39061169  5944
STARLINK-30540          
1 58002U 23153M   23307.91667824 -.02124086  00000+0 -47753-1 0  9998
2 58002  43.0007  54.7387 0001142 272.6524   3.5318 15.46157457  5843
STARLINK-30546          
1 58003U 23153N   23308.25002315 -.02098222  00000+0 -60960-1 0  9992
2 58003  43.0003  52.9022 0001474 260.4638  31.6894 15.37962269  5920
STARLINK-30539          
1 58004U 23153P   23308.25002315 -.02060622  00000+0 -59101-1 0  9991
2 58004  43.0002  52.8811 0001406 256.3038  44.5767 15.38867033  5913
STARLINK-30530          
1 58005U 23153Q   23307.91667824 -.02115168  00000+0 -56071-1 0  9995
2 58005  43.0003  54.7820 0001330 263.2243 354.8118 15.41327773  5875
STARLINK-30526          
1 58006U 23153R   23306.50001157  .00423151  00000+0  23944-2 0  9995
2 58006  43.0014  61.8262 0006200   6.5035  39.5717 15.77094021  5749
STARLINK-30527          
1 58007U 23153S   23308.25002315 -.00912038  00000+0 -60599-2 0  9993
2 58007  43.0000  50.8970 0000368 304.7521  80.6363 15.76996911  5844
STARLINK-30522          
1 58008U 23153T   23308.25002315 -.02068155  00000+0 -48288-1 0  9998
2 58008  43.0005  52.7928 0001430 267.2499  69.7995 15.44965354  5922
STARLINK-30486          
1 58009U 23153U   23307.91667824 -.02115194  00000+0 -53551-1 0  9998
2 58009  43.0003  54.7591 0001342 268.5290 358.7597 15.42687192  5540
STARLINK-30520          
1 58010U 23153V   23308.25002315 -.02067661  00000+0 -51608-1 0  9992
2 58010  43.0002  52.8092 0001586 265.5982  65.0293 15.43016996  5811
STARLINK-30497          
1 58011U 23153W   23307.91667824 -.02123776  00000+0 -49650-1 0  9991
2 58011  43.0005  54.7340 0001608 278.9707 358.9185 15.45025277  5874
STARLINK-30525          
1 58012U 23153X   23308.25002315 -.02069421  00000+0 -50081-1 0  9994
2 58012  43.0003  52.7964 0001554 267.1804  68.5379 15.43924405  5925
STARLINK-30514          
1 58028U 23156A   23308.16667824 -.01666159  00000+0 -30559-1 0  9994
2 58028  53.0549  93.9683 0000715  83.3463 287.8763 15.51838110  5244
STARLINK-30518          
1 58029U 23156B   23308.16667824 -.01667652  00000+0 -30587-1 0  9995
2 58029  53.0549  93.9656 0000787  96.9443 274.8653 15.51839805  5248
STARLINK-30549          
1 58030U 23156C   23308.16667824  .00207153  00000+0  29142-2 0  9996
2 58030  53.0548  93.9511 0003245  41.5999 336.9990 15.55455040  4908
STARLINK-30556          
1 58031U 23156D   23308.16667824 -.01667225  00000+0 -31563-1 0  9999
2 58031  53.0546  93.9996 0000953  96.0184 258.9483 15.50959789  5239
STARLINK-30561          
1 58032U 23156E   23308.16667824 -.01645455  00000+0 -21308-1 0  9997
2 58032  53.0553  93.6679 0001103  86.2395  73.1304 15.61584422  5246
STARLINK-30562          
1 58033U 23156F   23308.16667824 -.01645613  00000+0 -21045-1 0  9992
2 58033  53.0552  93.6510 0001140  83.2374  84.1819 15.61903808  5241
STARLINK-30565          
1 58034U 23156G   23308.16667824 -.01645304  00000+0 -21326-1 0  9992
2 58034  53.0553  93.6647 0001116  77.9310  83.0362 15.61560041  5246
STARLINK-30438          
1 58035U 23156H   23308.16667824 -.01666701  00000+0 -30658-1 0  9995
2 58035  53.0548  93.9609 0000725  85.2169 289.0021 15.51758644  4900
STARLINK-30437          
1 58036U 23156J   23308.16667824 -.01666860  00000+0 -30725-1 0  9997
2 58036  53.0549  93.9586 0000656  92.2726 282.9898 15.51701791  5137
STARLINK-30533          
1 58037U 23156K   23308.16667824 -.01647893  00000+0 -20178-1 0  9994
2 58037  53.0549  93.6091 0000987  79.1400 108.1949 15.63012638  5242
STARLINK-30560          
1 58038U 23156L   23308.16667824 -.01668437  00000+0 -30676-1 0  9996
2 58038  53.0550  93.9634 0000783  91.6965 281.8194 15.51774051  4982
STARLINK-30559          
1 58039U 23156M   23308.16667824 -.01645016  00000+0 -21370-1 0  9996
2 58039  53.0551  93.6609 0001156  84.2138  78.3706 15.61501857  5249
STARLINK-30555          
1 58040U 23156N   23308.16667824 -.01642069  00000+0 -20966-1 0  9993
2 58040  53.0553  93.6577 0001148  89.8607  75.1510 15.61937257  5245
STARLINK-30542          
1 58041U 23156P   23308.16667824 -.01664223  00000+0 -30682-1 0  9996
2 58041  53.0549  93.9573 0000649  75.9742 299.9437 15.51691733  5239
STARLINK-30563          
1 58042U 23156Q   23308.16667824 -.01666816  00000+0 -30809-1 0  9998
2 58042  53.0550  93.9548 0000777 106.7273 270.3247 15.51624464  5248
STARLINK-30564          
1 58043U 23156R   23308.16667824 -.01645562  00000+0 -21383-1 0  9991
2 58043  53.0553  93.6587 0001062  82.4464  81.4059 15.61496893  5248
STARLINK-30547          
1 58044U 23156S   23308.16667824 -.01644912  00000+0 -20335-1 0  9996
2 58044  53.0547  93.5993 0001001  90.5714 102.0490 15.62764626  5245
STARLINK-30550          
1 58045U 23156T   23308.16667824  .00478830  00000+0  27436-2 0  9998
2 58045  53.0526  93.4194 0008056 355.8061 284.7527 15.76904856  5249
STARLINK-30548          
1 58046U 23156U   23308.16667824 -.01642018  00000+0 -21408-1 0  9995
2 58046  53.0553  93.6545 0000982  83.0146  82.9984 15.61405218  5186
STARLINK-30529          
1 58047U 23156V   23308.16667824 -.01642568  00000+0 -21458-1 0  9991
2 58047  53.0553  93.6500 0001002  71.7327  96.3447 15.61355027  4989
STARLINK-30554          
1 58048U 23156W   23308.16667824 -.01646077  00000+0 -21500-1 0  9999
2 58048  53.0551  93.6503 0001065  77.7955  89.5365 15.61366323  5135
STARLINK-30568          
1 58051U 23158A   23308.16667824 -.01602378  00000+0 -12373-1 0  9999
2 58051  42.9989  13.9759 0001329 252.2278 211.6345 15.73795404  4404
STARLINK-30575          
1 58052U 23158B   23307.25979373 -.00742304  00000+0 -55732-2 0  9994
2 58052  42.9978  19.4644 0003457 285.8000  74.2487 15.73738961  4434
STARLINK-30577          
1 58053U 23158C   23308.25002315 -.01702932  00000+0 -13389-1 0  9994
2 58053  42.9990  13.4649 0001895 254.2413 325.4595 15.73554796  4589
STARLINK-30566          
1 58054U 23158D   23308.16667824 -.01651728  00000+0 -12789-1 0  9996
2 58054  42.9989  13.9665 0002057 260.1018 207.5028 15.73812414  4573
STARLINK-30544          
1 58055U 23158E   23308.16667824 -.01673216  00000+0 -12978-1 0  9993
2 58055  42.9988  13.9599 0000545 270.2814 199.8051 15.73826837  4523
STARLINK-30553          
1 58056U 23158F   23308.16667824 -.01635839  00000+0 -12660-1 0  9991
2 58056  42.9988  13.9615 0001228 249.7258 219.7422 15.73803974  4560
STARLINK-30541          
1 58057U 23158G   23308.16667824 -.01869974  00000+0 -14636-1 0  9996
2 58057  42.9988  13.9655 0001161 257.1767 210.9957 15.73973527  4567
STARLINK-30573          
1 58058U 23158H   23308.25002315 -.01668650  00000+0 -13101-1 0  9999
2 58058  42.9989  13.4605 0001586 253.2930 328.2816 15.73528913  4583
STARLINK-30582          
1 58059U 23158J   23308.16667824 -.01585558  00000+0 -12243-1 0  9993
2 58059  42.9987  13.9585 0001214 236.3925 234.3366 15.73767017  4574
STARLINK-30558          
1 58060U 23158K   23308.16667824 -.01549475  00000+0 -11940-1 0  9996
2 58060  42.9991  13.9739 0001481 253.4354 211.7011 15.73747573  4564
STARLINK-30579          
1 58061U 23158L   23308.16667824  .00501266  00000+0  17353-2 0  9995
2 58061  42.9975  13.3634 0003404  17.5058 330.9747 15.87421211  4576
